CCSDS_OMM_VERS = 2.0
CREATION_DATE  = 
ORIGINATOR     = 

OBJECT_NAME    = STARLINK-36404
OBJECT_ID      = 2026-022S
CENTER_NAME    = EARTH
REF_FRAME      = TEME
TIME_SYSTEM    = UTC
MEAN_ELEMENT_THEORY = SGP/SGP4

EPOCH          = 2026-02-17T12:00:01.999296
MEAN_MOTION    = 15.75162597
ECCENTRICITY   = .0000731
INCLINATION    = 97.2843
RA_OF_ASC_NODE = 81.5114
ARG_OF_PERICENTER = 100.5726
MEAN_ANOMALY   = 231.2448

EPHEMERIS_TYPE = 0
CLASSIFICATION_TYPE = U
NORAD_CAT_ID   = 67664
ELEMENT_SET_NO = 999
REV_AT_EPOCH   = 361
BSTAR          = -.59919E-5
MEAN_MOTION_DOT = -.1022E-4
MEAN_MOTION_DDOT = 0

CCSDS_OMM_VERS = 2.0
CREATION_DATE  = 
ORIGINATOR     = 

OBJECT_NAME    = STARLINK-36399
OBJECT_ID      = 2026-022T
CENTER_NAME    = EARTH
REF_FRAME      = TEME
TIME_SYSTEM    = UTC
MEAN_ELEMENT_THEORY = SGP/SGP4

EPOCH          = 2026-02-17T12:00:01.999296
MEAN_MOTION    = 15.75151526
ECCENTRICITY   = .0000911
INCLINATION    = 97.2843
RA_OF_ASC_NODE = 81.5141
ARG_OF_PERICENTER = 83.0143
MEAN_ANOMALY   = 252.8094

EPHEMERIS_TYPE = 0
CLASSIFICATION_TYPE = U
NORAD_CAT_ID   = 67665
ELEMENT_SET_NO = 999
REV_AT_EPOCH   = 361
BSTAR          = .18048E-3
MEAN_MOTION_DOT = .26829E-3
MEAN_MOTION_DDOT = 0

CCSDS_OMM_VERS = 2.0
CREATION_DATE  = 
ORIGINATOR     = 

OBJECT_NAME    = STARLINK-36365
OBJECT_ID      = 2026-022U
CENTER_NAME    = EARTH
REF_FRAME      = TEME
TIME_SYSTEM    = UTC
MEAN_ELEMENT_THEORY = SGP/SGP4

EPOCH          = 2026-02-17T12:00:01.999296
MEAN_MOTION    = 15.74948144
ECCENTRICITY   = .0001731
INCLINATION    = 97.2838
RA_OF_ASC_NODE = 81.5185
ARG_OF_PERICENTER = 89.5173
MEAN_ANOMALY   = 254.1190

EPHEMERIS_TYPE = 0
CLASSIFICATION_TYPE = U
NORAD_CAT_ID   = 67666
ELEMENT_SET_NO = 999
REV_AT_EPOCH   = 364
BSTAR          = .10502E-2
MEAN_MOTION_DOT = .157783E-2
MEAN_MOTION_DDOT = 0

CCSDS_OMM_VERS = 2.0
CREATION_DATE  = 
ORIGINATOR     = 

OBJECT_NAME    = STARLINK-36622
OBJECT_ID      = 2026-022V
CENTER_NAME    = EARTH
REF_FRAME      = TEME
TIME_SYSTEM    = UTC
MEAN_ELEMENT_THEORY = SGP/SGP4

EPOCH          = 2026-02-17T12:00:01.999296
MEAN_MOTION    = 15.75070447
ECCENTRICITY   = .0001268
INCLINATION    = 97.2843
RA_OF_ASC_NODE = 81.5216
ARG_OF_PERICENTER = 87.0738
MEAN_ANOMALY   = 266.7052

EPHEMERIS_TYPE = 0
CLASSIFICATION_TYPE = U
NORAD_CAT_ID   = 67667
ELEMENT_SET_NO = 999
REV_AT_EPOCH   = 364
BSTAR          = .1304E-2
MEAN_MOTION_DOT = .197924E-2
MEAN_MOTION_DDOT = 0

CCSDS_OMM_VERS = 2.0
CREATION_DATE  = 
ORIGINATOR     = 

OBJECT_NAME    = STARLINK-36625
OBJECT_ID      = 2026-022W
CENTER_NAME    = EARTH
REF_FRAME      = TEME
TIME_SYSTEM    = UTC
MEAN_ELEMENT_THEORY = SGP/SGP4

EPOCH          = 2026-02-17T12:00:01.999296
MEAN_MOTION    = 15.75100284
ECCENTRICITY   = .0001323
INCLINATION    = 97.2844
RA_OF_ASC_NODE = 81.5249
ARG_OF_PERICENTER = 90.9232
MEAN_ANOMALY   = 270.8973

EPHEMERIS_TYPE = 0
CLASSIFICATION_TYPE = U
NORAD_CAT_ID   = 67668
ELEMENT_SET_NO = 999
REV_AT_EPOCH   = 364
BSTAR          = .10541E-2
MEAN_MOTION_DOT = .159452E-2
MEAN_MOTION_DDOT = 0

CCSDS_OMM_VERS = 2.0
CREATION_DATE  = 
ORIGINATOR     = 

OBJECT_NAME    = STARLINK-36639
OBJECT_ID      = 2026-022X
CENTER_NAME    = EARTH
REF_FRAME      = TEME
TIME_SYSTEM    = UTC
MEAN_ELEMENT_THEORY = SGP/SGP4

EPOCH          = 2026-02-17T12:00:01.999296
MEAN_MOTION    = 15.75125397
ECCENTRICITY   = .0001472
INCLINATION    = 97.2843
RA_OF_ASC_NODE = 81.5289
ARG_OF_PERICENTER = 92.8501
MEAN_ANOMALY   = 278.9453

EPHEMERIS_TYPE = 0
CLASSIFICATION_TYPE = U
NORAD_CAT_ID   = 67669
ELEMENT_SET_NO = 999
REV_AT_EPOCH   = 364
BSTAR          = .96974E-3
MEAN_MOTION_DOT = .146613E-2
MEAN_MOTION_DDOT = 0

CCSDS_OMM_VERS = 2.0
CREATION_DATE  = 
ORIGINATOR     = 

OBJECT_NAME    = STARLINK-36596
OBJECT_ID      = 2026-022Y
CENTER_NAME    = EARTH
REF_FRAME      = TEME
TIME_SYSTEM    = UTC
MEAN_ELEMENT_THEORY = SGP/SGP4

EPOCH          = 2026-02-17T12:00:01.999296
MEAN_MOTION    = 15.75218368
ECCENTRICITY   = .0001746
INCLINATION    = 97.2839
RA_OF_ASC_NODE = 81.5332
ARG_OF_PERICENTER = 101.7163
MEAN_ANOMALY   = 280.0640

EPHEMERIS_TYPE = 0
CLASSIFICATION_TYPE = U
NORAD_CAT_ID   = 67670
ELEMENT_SET_NO = 999
REV_AT_EPOCH   = 364
BSTAR          = -.9689E-3
MEAN_MOTION_DOT = -.142449E-2
MEAN_MOTION_DDOT = 0

CCSDS_OMM_VERS = 2.0
CREATION_DATE  = 
ORIGINATOR     = 

OBJECT_NAME    = STARLINK-36297
OBJECT_ID      = 2026-022Z
CENTER_NAME    = EARTH
REF_FRAME      = TEME
TIME_SYSTEM    = UTC
MEAN_ELEMENT_THEORY = SGP/SGP4

EPOCH          = 2026-02-17T12:00:01.999296
MEAN_MOTION    = 15.75132642
ECCENTRICITY   = .0001018
INCLINATION    = 97.2841
RA_OF_ASC_NODE = 81.5380
ARG_OF_PERICENTER = 92.2805
MEAN_ANOMALY   = 301.5179

EPHEMERIS_TYPE = 0
CLASSIFICATION_TYPE = U
NORAD_CAT_ID   = 67671
ELEMENT_SET_NO = 999
REV_AT_EPOCH   = 364
BSTAR          = .85256E-3
MEAN_MOTION_DOT = .128646E-2
MEAN_MOTION_DDOT = 0

CCSDS_OMM_VERS = 2.0
CREATION_DATE  = 
ORIGINATOR     = 

OBJECT_NAME    = STARLINK-36616
OBJECT_ID      = 2026-022AA
CENTER_NAME    = EARTH
REF_FRAME      = TEME
TIME_SYSTEM    = UTC
MEAN_ELEMENT_THEORY = SGP/SGP4

EPOCH          = 2026-02-17T12:00:01.999296
MEAN_MOTION    = 15.75115793
ECCENTRICITY   = .0001356
INCLINATION    = 97.2835
RA_OF_ASC_NODE = 81.5346
ARG_OF_PERICENTER = 89.6133
MEAN_ANOMALY   = 296.1841

EPHEMERIS_TYPE = 0
CLASSIFICATION_TYPE = U
NORAD_CAT_ID   = 67672
ELEMENT_SET_NO = 999
REV_AT_EPOCH   = 364
BSTAR          = .10622E-2
MEAN_MOTION_DOT = .1608E-2
MEAN_MOTION_DDOT = 0

CCSDS_OMM_VERS = 2.0
CREATION_DATE  = 
ORIGINATOR     = 

OBJECT_NAME    = COSMOS 2600
OBJECT_ID      = 2026-023A
CENTER_NAME    = EARTH
REF_FRAME      = TEME
TIME_SYSTEM    = UTC
MEAN_ELEMENT_THEORY = SGP/SGP4

EPOCH          = 2026-02-17T08:38:44.731680
MEAN_MOTION    = 15.82676070
ECCENTRICITY   = .0001562
INCLINATION    = 96.6478
RA_OF_ASC_NODE = 124.6380
ARG_OF_PERICENTER = 57.7114
MEAN_ANOMALY   = 302.4308

EPHEMERIS_TYPE = 0
CLASSIFICATION_TYPE = U
NORAD_CAT_ID   = 67674
ELEMENT_SET_NO = 999
REV_AT_EPOCH   = 183
BSTAR          = .37304E-3
MEAN_MOTION_DOT = .78405E-3
MEAN_MOTION_DDOT = 0

CCSDS_OMM_VERS = 2.0
CREATION_DATE  = 
ORIGINATOR     = 

OBJECT_NAME    = 2026-023B
OBJECT_ID      = 2026-023B
CENTER_NAME    = EARTH
REF_FRAME      = TEME
TIME_SYSTEM    = UTC
MEAN_ELEMENT_THEORY = SGP/SGP4

EPOCH          = 2026-02-17T13:05:57.825024
MEAN_MOTION    = 15.22478094
ECCENTRICITY   = .0017865
INCLINATION    = 96.6401
RA_OF_ASC_NODE = 123.8295
ARG_OF_PERICENTER = 202.1081
MEAN_ANOMALY   = 157.9389

EPHEMERIS_TYPE = 0
CLASSIFICATION_TYPE = U
NORAD_CAT_ID   = 67675
ELEMENT_SET_NO = 999
REV_AT_EPOCH   = 179
BSTAR          = .56348E-3
MEAN_MOTION_DOT = .13056E-3
MEAN_MOTION_DDOT = 0

CCSDS_OMM_VERS = 2.0
CREATION_DATE  = 
ORIGINATOR     = 

OBJECT_NAME    = 2026-023C
OBJECT_ID      = 2026-023C
CENTER_NAME    = EARTH
REF_FRAME      = TEME
TIME_SYSTEM    = UTC
MEAN_ELEMENT_THEORY = SGP/SGP4

EPOCH          = 2026-02-17T13:05:18.702240
MEAN_MOTION    = 15.22552219
ECCENTRICITY   = .0019061
INCLINATION    = 96.6436
RA_OF_ASC_NODE = 123.8437
ARG_OF_PERICENTER = 191.8809
MEAN_ANOMALY   = 168.1982

EPHEMERIS_TYPE = 0
CLASSIFICATION_TYPE = U
NORAD_CAT_ID   = 67676
ELEMENT_SET_NO = 999
REV_AT_EPOCH   = 195
BSTAR          = .64918E-3
MEAN_MOTION_DOT = .15096E-3
MEAN_MOTION_DDOT = 0

