STARLINK-36404          
1 67664U 26022S   26048.50002314 -.00001022  00000+0 -59919-5 0  9990
2 67664  97.2843  81.5114 0000731 100.5726 231.2448 15.75162597  3618
STARLINK-36399          
1 67665U 26022T   26048.50002314  .00026829  00000+0  18048-3 0  9997
2 67665  97.2843  81.5141 0000911  83.0143 252.8094 15.75151526  3613
STARLINK-36365          
1 67666U 26022U   26048.50002314  .00157783  00000+0  10502-2 0  9998
2 67666  97.2838  81.5185 0001731  89.5173 254.1190 15.74948144  3645
STARLINK-36622          
1 67667U 26022V   26048.50002314  .00197924  00000+0  13040-2 0  9990
2 67667  97.2843  81.5216 0001268  87.0738 266.7052 15.75070447  3641
STARLINK-36625          
1 67668U 26022W   26048.50002314  .00159452  00000+0  10541-2 0  9998
2 67668  97.2844  81.5249 0001323  90.9232 270.8973 15.75100284  3644
STARLINK-36639          
1 67669U 26022X   26048.50002314  .00146613  00000+0  96974-3 0  9999
2 67669  97.2843  81.5289 0001472  92.8501 278.9453 15.75125397  3647
STARLINK-36596          
1 67670U 26022Y   26048.50002314 -.00142449  00000+0 -96890-3 0  9993
2 67670  97.2839  81.5332 0001746 101.7163 280.0640 15.75218368  3644
STARLINK-36297          
1 67671U 26022Z   26048.50002314  .00128646  00000+0  85256-3 0  9999
2 67671  97.2841  81.5380 0001018  92.2805 301.5179 15.75132642  3646
STARLINK-36616          
1 67672U 26022AA  26048.50002314  .00160800  00000+0  10622-2 0  9992
2 67672  97.2835  81.5346 0001356  89.6133 296.1841 15.75115793  3644
COSMOS 2600             
1 67674U 26023A   26048.36023995  .00078405  00000+0  37304-3 0  9993
2 67674  96.6478 124.6380 0001562  57.7114 302.4308 15.82676070  1839
2026-023B               
1 67675U 26023B   26048.54580816  .00013056  00000+0  56348-3 0  9994
2 67675  96.6401 123.8295 0017865 202.1081 157.9389 15.22478094  1791
2026-023C               
1 67676U 26023C   26048.54535535  .00015096  00000+0  64918-3 0  9991
2 67676  96.6436 123.8437 0019061 191.8809 168.1982 15.22552219  1953
